{
  "type": "FeatureCollection",
  "features": [
    {
      "type": "Feature",
      "id": "route_pretoria_cape_town",
      "properties": {
        "name": "Pretoria to Cape Town Trans-Karoo Mainline",
        "total_distance_km": 1600.0
      },
      "geometry": {
        "type": "LineString",
        "coordinates": [
          [28.1895, -25.7565],
          [28.1001, -26.0125],
          [28.0436, -26.1952],
          [27.8964, -26.4385],
          [27.0986, -26.8598],
          [26.6570, -27.0322],
          [25.8614, -27.6748],
          [25.2415, -28.2514],
          [24.7645, -28.7383],
          [24.4215, -29.2841],
          [24.0150, -29.9812],
          [23.5518, -30.6542],
          [22.9512, -31.4285],
          [22.5833, -31.9056],
          [21.5794, -32.8122],
          [20.5828, -33.2307],
          [20.1843, -33.3912],
          [19.6897, -33.4735],
          [19.4589, -33.6421],
          [18.9954, -33.7342],
          [18.6312, -33.8821],
          [18.4241, -33.9249]
        ]
      }
    }
  ]
}